{
  "type": "FeatureCollection",
  "features": [
    {
      "type": "Feature",
      "properties": {
        "norad_id": 33822,
        "name": "COSMOS 2251 DEB",
        "group": "cosmos-2251-debris",
        "lat": 48.89574715979559,
        "lon": -169.57468363864902,
        "alt_km": 949.1755311936658,
        "timestamp": "2025-12-25T09:48:52.681845+00:00",
        "meta_object_name": "COSMOS 2251 DEB",
        "meta_object_id": "1993-036BP",
        "meta_epoch": "2025-12-24T22:25:41.074752",
        "meta_mean_motion": 14.13133115,
        "meta_eccentricity": 0.015264,
        "meta_inclination": 74.0682,
        "meta_ra_of_asc_node": 172.1526,
        "meta_arg_of_pericenter": 215.5067,
        "meta_mean_anomaly": 304.0164,
        "meta_ephemeris_type": 0,
        "meta_classification_type": "U",
        "meta_norad_cat_id": 33822,
        "meta_element_set_no": 999,
        "meta_rev_at_epoch": 86226,
        "meta_bstar": 0.0016321,
        "meta_mean_motion_dot": 3.385e-05,
        "meta_mean_motion_ddot": 0,
        "tle_line1": "1 33822U 93036BP  25358.93450318  .00003385  00000+0  16321-2 0  9998",
        "tle_line2": "2 33822  74.0682 172.1526 0152640 215.5067 304.0164 14.13133115862260"
      },
      "geometry": {
        "type": "Point",
        "coordinates": [
          -169.57468363864902,
          48.89574715979559
        ]
      }
    },
    {
      "type": "Feature",
      "properties": {
        "norad_id": 33823,
        "name": "COSMOS 2251 DEB",
        "group": "cosmos-2251-debris",
        "lat": -44.908507005224095,
        "lon": 110.29293847155621,
        "alt_km": 830.7909182246685,
        "timestamp": "2025-12-25T09:48:52.681855+00:00",
        "meta_object_name": "COSMOS 2251 DEB",
        "meta_object_id": "1993-036BQ",
        "meta_epoch": "2025-12-24T19:20:41.845632",
        "meta_mean_motion": 13.98980632,
        "meta_eccentricity": 0.02094741,
        "meta_inclination": 73.8099,
        "meta_ra_of_asc_node": 128.1829,
        "meta_arg_of_pericenter": 251.4181,
        "meta_mean_anomaly": 263.9686,
        "meta_ephemeris_type": 0,
        "meta_classification_type": "U",
        "meta_norad_cat_id": 33823,
        "meta_element_set_no": 999,
        "meta_rev_at_epoch": 85778,
        "meta_bstar": 0.00082712522,
        "meta_mean_motion_dot": 1.415e-05,
        "meta_mean_motion_ddot": 0,
        "tle_line1": "1 33823U 93036BQ  25358.80603988  .00001415  00000+0  82713-3 0  9999",
        "tle_line2": "2 33823  73.8099 128.1829 0209474 251.4181 263.9686 13.98980632857780"
      },
      "geometry": {
        "type": "Point",
        "coordinates": [
          110.29293847155621,
          -44.908507005224095
        ]
      }
    },
    {
      "type": "Feature",
      "properties": {
        "norad_id": 33825,
        "name": "COSMOS 2251 DEB",
        "group": "cosmos-2251-debris",
        "lat": -46.625425168279165,
        "lon": -14.545409808175771,
        "alt_km": 610.3200481754611,
        "timestamp": "2025-12-25T09:48:52.681865+00:00",
        "meta_object_name": "COSMOS 2251 DEB",
        "meta_object_id": "1993-036BS",
        "meta_epoch": "2025-12-24T22:48:14.857344",
        "meta_mean_motion": 14.6988207,
        "meta_eccentricity": 0.0085105,
        "meta_inclination": 73.9851,
        "meta_ra_of_asc_node": 4.0441,
        "meta_arg_of_pericenter": 328.2698,
        "meta_mean_anomaly": 76.3252,
        "meta_ephemeris_type": 0,
        "meta_classification_type": "U",
        "meta_norad_cat_id": 33825,
        "meta_element_set_no": 999,
        "meta_rev_at_epoch": 89059,
        "meta_bstar": 0.0011144,
        "meta_mean_motion_dot": 7.02e-05,
        "meta_mean_motion_ddot": 0,
        "tle_line1": "1 33825U 93036BS  25358.95017196  .00007020  00000+0  11144-2 0  9994",
        "tle_line2": "2 33825  73.9851   4.0441 0085105 328.2698  76.3252 14.69882070890597"
      },
      "geometry": {
        "type": "Point",
        "coordinates": [
          -14.545409808175771,
          -46.625425168279165
        ]
      }
    },
    {
      "type": "Feature",
      "properties": {
        "norad_id": 33826,
        "name": "COSMOS 2251 DEB",
        "group": "cosmos-2251-debris",
        "lat": 72.18254481799421,
        "lon": 143.30932824138972,
        "alt_km": 662.6714177449339,
        "timestamp": "2025-12-25T09:48:52.681876+00:00",
        "meta_object_name": "COSMOS 2251 DEB",
        "meta_object_id": "1993-036BT",
        "meta_epoch": "2025-12-25T03:00:31.147200",
        "meta_mean_motion": 14.51774287,
        "meta_eccentricity": 0.0082518,
        "meta_inclination": 74.064,
        "meta_ra_of_asc_node": 26.5897,
        "meta_arg_of_pericenter": 66.7809,
        "meta_mean_anomaly": 349.2554,
        "meta_ephemeris_type": 0,
        "meta_classification_type": "U",
        "meta_norad_cat_id": 33826,
        "meta_element_set_no": 999,
        "meta_rev_at_epoch": 87949,
        "meta_bstar": 0.00047814,
        "meta_mean_motion_dot": 1.981e-05,
        "meta_mean_motion_ddot": 0,
        "tle_line1": "1 33826U 93036BT  25359.12536050  .00001981  00000+0  47814-3 0  9994",
        "tle_line2": "2 33826  74.0640  26.5897 0082518  66.7809 349.2554 14.51774287879497"
      },
      "geometry": {
        "type": "Point",
        "coordinates": [
          143.30932824138972,
          72.18254481799421
        ]
      }
    },
    {
      "type": "Feature",
      "properties": {
        "norad_id": 33828,
        "name": "COSMOS 2251 DEB",
        "group": "cosmos-2251-debris",
        "lat": 16.586673338154583,
        "lon": -140.58052816424552,
        "alt_km": 744.9720267401699,
        "timestamp": "2025-12-25T09:48:52.681886+00:00",
        "meta_object_name": "COSMOS 2251 DEB",
        "meta_object_id": "1993-036BV",
        "meta_epoch": "2025-12-25T00:17:48.836256",
        "meta_mean_motion": 14.44366636,
        "meta_eccentricity": 0.0029519,
        "meta_inclination": 74.045,
        "meta_ra_of_asc_node": 215.2685,
        "meta_arg_of_pericenter": 286.3206,
        "meta_mean_anomaly": 189.4918,
        "meta_ephemeris_type": 0,
        "meta_classification_type": "U",
        "meta_norad_cat_id": 33828,
        "meta_element_set_no": 999,
        "meta_rev_at_epoch": 88490,
        "meta_bstar": 0.00037982,
        "meta_mean_motion_dot": 1.288e-05,
        "meta_mean_motion_ddot": 0,
        "tle_line1": "1 33828U 93036BV  25359.01237079  .00001288  00000+0  37982-3 0  9998",
        "tle_line2": "2 33828  74.0450 215.2685 0029519 286.3206 189.4918 14.44366636884900"
      },
      "geometry": {
        "type": "Point",
        "coordinates": [
          -140.58052816424552,
          16.586673338154583
        ]
      }
    },
    {
      "type": "Feature",
      "properties": {
        "norad_id": 33830,
        "name": "COSMOS 2251 DEB",
        "group": "cosmos-2251-debris",
        "lat": -58.22076609004666,
        "lon": 177.99419331002116,
        "alt_km": 618.2988515462503,
        "timestamp": "2025-12-25T09:48:52.681897+00:00",
        "meta_object_name": "COSMOS 2251 DEB",
        "meta_object_id": "1993-036BX",
        "meta_epoch": "2025-12-25T00:51:34.582752",
        "meta_mean_motion": 14.7702343,
        "meta_eccentricity": 0.0042753,
        "meta_inclination": 74.0307,
        "meta_ra_of_asc_node": 206.2562,
        "meta_arg_of_pericenter": 323.8791,
        "meta_mean_anomaly": 151.0365,
        "meta_ephemeris_type": 0,
        "meta_classification_type": "U",
        "meta_norad_cat_id": 33830,
        "meta_element_set_no": 999,
        "meta_rev_at_epoch": 89653,
        "meta_bstar": 0.00076402,
        "meta_mean_motion_dot": 5.439e-05,
        "meta_mean_motion_ddot": 0,
        "tle_line1": "1 33830U 93036BX  25359.03581693  .00005439  00000+0  76402-3 0  9999",
        "tle_line2": "2 33830  74.0307 206.2562 0042753 323.8791 151.0365 14.77023430896530"
      },
      "geometry": {
        "type": "Point",
        "coordinates": [
          177.99419331002116,
          -58.22076609004666
        ]
      }
    },
    {
      "type": "Feature",
      "properties": {
        "norad_id": 33832,
        "name": "COSMOS 2251 DEB",
        "group": "cosmos-2251-debris",
        "lat": -30.518001084857413,
        "lon": 176.0956830100924,
        "alt_km": 703.0817478223335,
        "timestamp": "2025-12-25T09:48:52.681911+00:00",
        "meta_object_name": "COSMOS 2251 DEB",
        "meta_object_id": "1993-036BZ",
        "meta_epoch": "2025-12-24T23:08:33.802368",
        "meta_mean_motion": 14.60787327,
        "meta_eccentricity": 0.0024033,
        "meta_inclination": 74.0528,
        "meta_ra_of_asc_node": 186.6476,
        "meta_arg_of_pericenter": 215.359,
        "meta_mean_anomaly": 295.1614,
        "meta_ephemeris_type": 0,
        "meta_classification_type": "U",
        "meta_norad_cat_id": 33832,
        "meta_element_set_no": 999,
        "meta_rev_at_epoch": 88603,
        "meta_bstar": 0.0014396,
        "meta_mean_motion_dot": 7.035e-05,
        "meta_mean_motion_ddot": 0,
        "tle_line1": "1 33832U 93036BZ  25358.96428012  .00007035  00000+0  14396-2 0  9994",
        "tle_line2": "2 33832  74.0528 186.6476 0024033 215.3590 295.1614 14.60787327886030"
      },
      "geometry": {
        "type": "Point",
        "coordinates": [
          176.0956830100924,
          -30.518001084857413
        ]
      }
    }
  ]
}